FENGYUN 3B              
1 37214U 10059A   24298.59681899  .00000297  00000+0  17774-3 0  9998
2 37214  99.0446 328.4420 0023183  87.3211  64.3986 14.14599419722546
COSMO-SKYMED 4          
1 37216U 10060A   24298.46506003  .00001587  00000+0  20588-3 0  9991
2 37216  97.8885 119.7492 0001366  87.8556 272.2813 14.82163317755642
O/OREOS (USA 219)       
1 37224U 10062C   24298.48498886  .00006702  00000+0  71779-3 0  9995
2 37224  71.9741 356.7938 0013259 133.3854 226.8420 14.88926103 27068
ELEKTRO-L 1 (GOMS 2)    
1 37344U 11001A   24297.62993885 -.00000036  00000+0  00000+0 0  9996
2 37344   8.3094  60.3750 0003845  36.9230 159.9649  1.00245591 50455
RESOURCESAT-2           
1 37387U 11015A   24298.44732528  .00000508  00000+0  25072-3 0  9997
2 37387  98.5629   0.5183 0005308 100.3329 259.8447 14.21692220701354
YOUTHSAT                
1 37388U 11015B   24298.50917237  .00000744  00000+0  33445-3 0  9992
2 37388  98.3086 291.1852 0013671 310.2986 161.3816 14.25105943702593
APRIZESAT 6             
1 37793U 11044F   24297.97122286  .00002156  00000+0  32312-3 0  9997
2 37793  98.2808 184.4267 0043797 205.1615 165.9159 14.75094701708456
JUGNU                   
1 37839U 11058B   24298.52313191  .00000960  00000+0  36339-3 0  9996
2 37839  19.9623 356.7684 0018465 284.3788 104.3547 14.13378847674046
SRMSAT                  
1 37841U 11058D   24297.80271566  .00000646  00000+0  20829-3 0  9996
2 37841  19.9712  98.8011 0011794  68.9356 319.5768 14.11249894672759
SUOMI NPP               
1 37849U 11061A   24298.52237626  .00000368  00000+0  19522-3 0  9996
2 37849  98.7323 234.6021 0000626 138.0936 222.0288 14.19538463673214
YAOGAN-12               
1 37875U 11066B   24298.51957059  .00020994  00000+0  87238-3 0  9994
2 37875  97.2036 353.0280 0005073 225.3300 134.7525 15.23816432721114
ZIYUAN 3-1 (ZY 3-1)     
1 38046U 12001A   24298.45627089  .00048683  00000+0  12482-2 0  9998
2 38046  97.2284 358.0409 0004843  55.1767 304.9934 15.39192865710766
BEIDOU-2 M4             
1 38251U 12018B   24298.26870992 -.00000070  00000+0  00000+0 0  9995
2 38251  56.1528 324.3024 0016281 265.2150  94.6429  1.86232009 85104
ARIRANG-3 (KOMPSAT-3)   
1 38338U 12025B   24298.53785739  .00001974  00000+0  39159-3 0  9997
2 38338  98.2767 245.0659 0009599 187.4941 172.6119 14.63324660663651
HORYU-2                 
1 38340U 12025D   24298.18131047  .00009491  00000+0  11448-2 0  9990
2 38340  98.1686  40.7077 0008954 345.9256  14.1706 14.84003465669750
CSSWE                   
1 38761U 12048D   24298.30489814  .00034678  00000+0  16634-2 0  9991
2 38761  64.6679 279.2279 0122309 335.2855  24.2434 15.12282542 24569
CP5                     
1 38763U 12048F   24298.37721674  .00022624  00000+0  12343-2 0  9994
2 38763  64.6606 309.1717 0130481 341.9698  17.6813 15.07277613 25554
METOP-B                 
1 38771U 12049A   24298.47704882  .00000400  00000+0  20232-3 0  9992
2 38771  98.6125 352.7015 0001439  91.5992 268.5351 14.21554149627915
SJ-9A                   
1 38860U 12056A   24298.51785158  .00003958  00000+0  49119-3 0  9995
2 38860  97.6049 284.8416 0029147  74.2820 286.1606 14.82866003649681
COSMOS 2484             
1 39059U 13001C   24298.17345541  .00000074  00000+0  46092-3 0  9990
2 39059  82.5025 235.5755 0025204 266.0616  93.7582 12.42908350534091
SARAL                   
1 39086U 13009A   24298.51036351  .00000449  00000+0  18146-3 0  9997
2 39086  98.5511 121.8708 0000834 256.5119 103.5972 14.32551112609599
AAUSAT 3                
1 39087U 13009B   24298.47692759  .00002215  00000+0  74089-3 0  9994
2 39087  98.3671 125.6503 0011248 212.0820 147.9685 14.38338363611084
STRAND-1                
1 39090U 13009E   24298.51079035  .00001128  00000+0  39957-3 0  9996
2 39090  98.3799 123.2756 0008063 221.3688 138.6889 14.36380578610826
BRITE-AUSTRIA           
1 39091U 13009F   24298.51483267  .00000758  00000+0  27533-3 0  9998
2 39091  98.3847 122.5550 0009420 230.0867 129.9492 14.36014781610833
UNIBRITE                
1 39092U 13009G   24297.77664845  .00000580  00000+0  21460-3 0  9995
2 39092  98.3888 121.7942 0008352 227.4602 132.5879 14.35885593610661
AIST-2 (RS-43)          
1 39133U 13015D   24298.48736956  .00013984  00000+0  73114-3 0  9995
2 39133  64.8717  47.5712 0022454 309.2954  50.6179 15.15884258632948
GAOFEN-1                
1 39150U 13018A   24298.50127731  .00002592  00000+0  37814-3 0  9995
2 39150  97.9769   9.4070 0020740  45.1027 315.1862 14.76511010619647
NEE-01 PEGASO           
1 39151U 13018B   24298.31027966  .00007019  00000+0  77493-3 0  9990
2 39151  98.0492  56.9395 0013903 341.5009  18.5700 14.87702378621162
TURKSAT-3USAT           
1 39152U 13018C   24298.50982375  .00010430  00000+0  11007-2 0  9995
2 39152  97.8232  22.6201 0012870 297.0005  62.9897 14.89407678621449
CUBEBUG-1 (CAPITAN BETO)
1 39153U 13018D   24298.35018343  .00009230  00000+0  96503-3 0  9995
2 39153  98.0911  66.4017 0013221 331.4728  28.5764 14.89826845621424
PROBA-V                 
1 39159U 13021A   24298.49557922  .00000300  00000+0  15028-3 0  9993
2 39159  98.3118 297.8372 0005441  91.6410 268.5393 14.23357111595656
ESTCUBE 1               
1 39161U 13021C   24298.46684436  .00005220  00000+0  73431-3 0  9992
2 39161  97.8139   0.9999 0009216 163.5603 196.5909 14.77726061616213
ARIRANG-5 (KOMPSAT-5)   
1 39227U 13042A   24298.52900476  .00005947  00000+0  42859-3 0  9996
2 39227  97.6196 122.6321 0003159  44.9558 315.1923 15.04530368613608
GONETS-M 5              
1 39249U 13048A   24298.52114904  .00000035  00000+0  18243-3 0  9992
2 39249  82.4861 357.8243 0017735  85.1431 275.1673 12.42904245504424
GONETS-M 7              
1 39251U 13048C   24297.93248719  .00000044  00000+0  24500-3 0  9994
2 39251  82.4932   0.7970 0018293  87.0374 273.2798 12.42882983504144
FENGYUN 3C              
1 39260U 13052A   24298.52427420  .00000347  00000+0  19575-3 0  9995
2 39260  98.4382 291.3345 0010308 318.9881  41.0519 14.16318684573639
CASSIOPE                
1 39265U 13055A   24298.48006838  .00056632  00000+0  10938-2 0  9995
2 39265  80.9506  50.9310 0463279 222.8526 133.5708 14.78861962577425
APRIZESAT 7             
1 39416U 13066A   24298.43969788  .00004819  00000+0  51775-3 0  9997
2 39416  97.6887 253.5544 0039398  43.2524 317.1775 14.88439178591784
ZACUBE-1 (TSHEPISOSAT)  
1 39417U 13066B   24297.82158318  .00010746  00000+0  10412-2 0  9997
2 39417  97.7498 251.2114 0050657  93.8387 266.8626 14.91906547590744
APRIZESAT 8             
1 39425U 13066K   24298.14546204  .00003636  00000+0  42268-3 0  9992
2 39425  97.7452 246.8276 0049975 101.9070 258.7754 14.85038841590640
CINEMA-3 (KHUSAT-2)     
1 39426U 13066L   24298.33923067  .00006404  00000+0  89515-3 0  9992
2 39426  97.8409 216.1869 0095810 356.6566   3.3991 14.74795141586036
TRITON-1                
1 39427U 13066M   24298.49196818  .00011435  00000+0  15349-2 0  9999
2 39427  97.8363 212.4169 0100850  26.2383 334.3886 14.75962092585464
DELFI-N3XT              
1 39428U 13066N   24298.49299447  .00022637  00000+0  26435-2 0  9996
2 39428  97.8328 213.6600 0096853  29.6542 331.0113 14.81778679585392
GOMX-1                  
1 39430U 13066Q   24298.56788400  .00005990  00000+0  96965-3 0  9998
2 39430  97.7098 165.0906 0136166 200.4858 159.0855 14.65579656581986
BRITE-PL1 (LEM)         
1 39431U 13066R   24297.94690035  .00001834  00000+0  38147-3 0  9997
2 39431  97.7227  85.4280 0196505  81.3087 281.0313 14.49679177576760
ICUBE-1                 
1 39432U 13066S   24297.88930043  .00018686  00000+0  12691-2 0  9995
2 39432  97.5165 275.8278 0022097 253.7930 106.0866 15.06226108594493
HUMSAT-D                
1 39433U 13066T   24298.48610730  .00036630  00000+0  18699-2 0  9994
2 39433  97.4977 287.6251 0015001 187.5882 172.5126 15.16515100595473
VELOX-PII               
1 39438U 13066Y   24298.40727957  .00007814  00000+0  86018-3 0  9994
2 39438  97.8010 243.4481 0060237 165.3961 194.9013 14.86502940589489
FIRST-MOVE              
1 39439U 13066Z   24298.14197358  .00041176  00000+0  26299-2 0  9995
2 39439  97.7249 261.3328 0041354  61.2154 299.3217 15.07803082591348
CUBEBUG-2 (LO-74)       
1 39440U 13066AA  24298.39938478  .00009463  00000+0  10507-2 0  9998
2 39440  97.8234 239.5295 0065395 209.6617 150.0883 14.85863389588707
NEE-02 KRYSAOR          
1 39441U 13066AB  24298.36519161  .00006309  00000+0  77138-3 0  9990
2 39441  97.8315 234.8037 0070376 234.8323 124.6285 14.81824616588214
FUNCUBE-1 (AO-73)       
1 39444U 13066AE  24298.44061613  .00016863  00000+0  14851-2 0  9994
2 39444  97.7358 255.3432 0048039  71.1403 289.5018 14.95641139589995
HINCUBE                 
1 39445U 13066AF  24298.12404238  .00013546  00000+0  12093-2 0  9995
2 39445  97.7367 254.6221 0048100  75.3787 285.2760 14.95161824589450
UWE-3                   
1 39446U 13066AG  24298.36636114  .00008471  00000+0  88597-3 0  9996
2 39446  97.7950 245.6258 0058306 152.2022 208.2332 14.88621593588494
SMDC ONE 2.4            
1 39469U 13072H   24298.04620595  .00018428  00000+0  10227-2 0  9996
2 39469 120.4969 224.6309 0210652  89.3957 273.1236 14.96988290 27129
CP8 (IPEX)              
1 39471U 13072K   24298.53475343  .00018317  00000+0  11221-2 0  9994
2 39471 120.4709 200.2433 0219294  84.9990 277.6064 14.92512499 25048
COSMOS 2488             
1 39483U 13076A   24298.20433466  .00000053  00000+0  30928-3 0  9999
2 39483  82.4874 183.2177 0019320 327.4731  32.5157 12.42894740491427
COSMOS 2489             
1 39484U 13076B   24298.17821486  .00000049  00000+0  28392-3 0  9996
2 39484  82.4912 184.4303 0021415 328.6333  31.3468 12.42887967491485
COSMOS 2490             
1 39485U 13076C   24298.47074382  .00000050  00000+0  28977-3 0  9996
2 39485  82.4856 182.5776 0021469 342.6623  17.3721 12.42901668491462
